{
"type": "FeatureCollection",
"name": "golf_courses",
"crs": { "type": "name", "properties": { "name": "urn:ogc:def:crs:OGC:1.3:CRS84" } },
"features": [
{ "type": "Feature", "properties": { "golf_name": "Clearview Park" }, "geometry": { "type": "MultiPolygon", "coordinates": [ [ [ [ -73.7906368, 40.7868068 ], [ -73.7912531, 40.7871773 ], [ -73.7913235, 40.787123 ], [ -73.7912769, 40.7869935 ], [ -73.7912934, 40.7868929 ], [ -73.7914439, 40.7867283 ], [ -73.791706, 40.7865739 ], [ -73.7920085, 40.7862151 ], [ -73.7919685, 40.785876 ], [ -73.7920517, 40.7854807 ], [ -73.79188, 40.7843499 ], [ -73.7915539, 40.7826602 ], [ -73.7911419, 40.780366 ], [ -73.7906612, 40.7772722 ], [ -73.7903143, 40.7772271 ], [ -73.7901917, 40.7773732 ], [ -73.789451, 40.7775777 ], [ -73.7886863, 40.7778305 ], [ -73.7883695, 40.7779352 ], [ -73.7869276, 40.7784227 ], [ -73.7850994, 40.7789686 ], [ -73.7851423, 40.780145 ], [ -73.7853912, 40.7818998 ], [ -73.7856058, 40.7826797 ], [ -73.7862152, 40.783882 ], [ -73.7867388, 40.7846683 ], [ -73.7876829, 40.7856497 ], [ -73.788627, 40.7863905 ], [ -73.7891497, 40.7867516 ], [ -73.7896827, 40.7866764 ], [ -73.7899454, 40.7866227 ], [ -73.7902268, 40.7866525 ], [ -73.7906368, 40.7868068 ] ] ] ] } },
{ "type": "Feature", "properties": { "golf_name": "Kissena Golf Course" }, "geometry": { "type": "MultiPolygon", "coordinates": [ [ [ [ -73.8040502, 40.7443089 ], [ -73.8041691, 40.7437711 ], [ -73.804261, 40.7422749 ], [ -73.8024159, 40.7422993 ], [ -73.8000712, 40.7423303 ], [ -73.7993243, 40.7423206 ], [ -73.7988495, 40.742266 ], [ -73.7969765, 40.7420643 ], [ -73.7967166, 40.7422229 ], [ -73.7957473, 40.7430858 ], [ -73.7948488, 40.7440129 ], [ -73.7947278, 40.744201 ], [ -73.7946414, 40.7443972 ], [ -73.7945997, 40.7445574 ], [ -73.7945503, 40.7448669 ], [ -73.7945275, 40.7449993 ], [ -73.7945423, 40.7452345 ], [ -73.7945972, 40.745921 ], [ -73.7946508, 40.74629 ], [ -73.7952821, 40.746511 ], [ -73.7958149, 40.7464998 ], [ -73.7962076, 40.746429 ], [ -73.7968524, 40.7463802 ], [ -73.7976334, 40.746125 ], [ -73.7983819, 40.7458976 ], [ -73.7989984, 40.7457286 ], [ -73.7990613, 40.745662 ], [ -73.7992558, 40.7455646 ], [ -73.8004449, 40.7455041 ], [ -73.8012929, 40.7456757 ], [ -73.8023454, 40.7457832 ], [ -73.8029482, 40.7457949 ], [ -73.8034453, 40.7457751 ], [ -73.8040502, 40.7443089 ] ] ] ] } },
{ "type": "Feature", "properties": { "golf_name": "Douglaston Golf Course" }, "geometry": { "type": "MultiPolygon", "coordinates": [ [ [ [ -73.7353284, 40.7559355 ], [ -73.7353477, 40.7558957 ], [ -73.735646, 40.7552806 ], [ -73.7365262, 40.7534657 ], [ -73.7364477, 40.7529166 ], [ -73.7364001, 40.752584 ], [ -73.736339, 40.7521566 ], [ -73.7362421, 40.7514791 ], [ -73.7360951, 40.7504508 ], [ -73.7359683, 40.7495644 ], [ -73.7349598, 40.7495319 ], [ -73.7347082, 40.7487577 ], [ -73.7343436, 40.748578699999989 ], [ -73.7338652, 40.748645599999989 ], [ -73.7338021, 40.7486817 ], [ -73.7335058, 40.7488511 ], [ -73.7325785, 40.7491535 ], [ -73.7323339, 40.749233 ], [ -73.7320037, 40.7493404 ], [ -73.7313969, 40.7494046 ], [ -73.7306755, 40.749418 ], [ -73.7299896, 40.7494558 ], [ -73.7292065, 40.7495216 ], [ -73.7289153, 40.7495305 ], [ -73.7285532, 40.7501672 ], [ -73.7286074, 40.750475 ], [ -73.7286296, 40.7506905 ], [ -73.728909, 40.7531473 ], [ -73.7288232, 40.7537455 ], [ -73.7291665, 40.7541226 ], [ -73.7286456, 40.7541691 ], [ -73.7285685, 40.7552381 ], [ -73.7293325, 40.7550654 ], [ -73.729585, 40.7550422 ], [ -73.7297391, 40.7550799 ], [ -73.7300219, 40.7550607 ], [ -73.7307271, 40.7549167 ], [ -73.7310091, 40.7548657 ], [ -73.7311345, 40.7548414 ], [ -73.7320951, 40.7546628 ], [ -73.7332679, 40.7544492 ], [ -73.7341657, 40.7562582 ], [ -73.734171800000013, 40.7562705 ], [ -73.7341765, 40.7562691 ], [ -73.7353284, 40.7559355 ] ] ] ] } },
{ "type": "Feature", "properties": { "golf_name": "Richmond County Country Club" }, "geometry": { "type": "MultiPolygon", "coordinates": [ [ [ [ -74.1178371, 40.5855184 ], [ -74.1169325, 40.5850052 ], [ -74.116823, 40.584943 ], [ -74.1127439, 40.5826286 ], [ -74.1126939, 40.5826966 ], [ -74.112676, 40.5827196 ], [ -74.1126605, 40.5827394 ], [ -74.1126449, 40.5827595 ], [ -74.1126293, 40.5827793 ], [ -74.1126137, 40.5827993 ], [ -74.1125972, 40.5828203 ], [ -74.1125803, 40.5828418 ], [ -74.1125634, 40.5828633 ], [ -74.1125464, 40.5828848 ], [ -74.1125259, 40.58291 ], [ -74.1125063, 40.5829337 ], [ -74.1124872, 40.582956599999989 ], [ -74.1124665, 40.5829817 ], [ -74.1124474, 40.5830047 ], [ -74.1124749, 40.5830145 ], [ -74.112485, 40.5830191 ], [ -74.1124924, 40.583027 ], [ -74.1124944, 40.5830372 ], [ -74.1124914, 40.5830477 ], [ -74.1124843, 40.5830589 ], [ -74.1124712, 40.5830681 ], [ -74.1124577, 40.5830727 ], [ -74.1124403, 40.5830725 ], [ -74.1123883, 40.5831308 ], [ -74.1123921, 40.583134 ], [ -74.1123958, 40.5831424 ], [ -74.1123964, 40.5831515 ], [ -74.1123937, 40.5831594 ], [ -74.1123857, 40.583165 ], [ -74.1123796, 40.5831663 ], [ -74.1123104, 40.5831683 ], [ -74.1122931, 40.5831921 ], [ -74.1122751, 40.583217 ], [ -74.1122578, 40.5832407 ], [ -74.112239, 40.5832667 ], [ -74.1122217, 40.5832905 ], [ -74.1122005, 40.5833204 ], [ -74.1121842, 40.5833445 ], [ -74.1121668, 40.5833702 ], [ -74.1121504, 40.5833944 ], [ -74.1121336, 40.5834192 ], [ -74.1121171, 40.5834436 ], [ -74.1120983, 40.5834712 ], [ -74.1120834, 40.5835004 ], [ -74.1120708, 40.5835265 ], [ -74.1120592, 40.5835503 ], [ -74.1120452, 40.5835791 ], [ -74.1120302, 40.5836087 ], [ -74.1119637, 40.5837245 ], [ -74.1104322, 40.5863489 ], [ -74.1119943, 40.5873723 ], [ -74.1123592, 40.5883339 ], [ -74.1124807, 40.5886129 ], [ -74.1125796, 40.5888398 ], [ -74.11267, 40.5890473 ], [ -74.1127283, 40.5891812 ], [ -74.1124955, 40.5891684 ], [ -74.1118212, 40.5888869 ], [ -74.1115581, 40.5887771 ], [ -74.1114783, 40.5887524 ], [ -74.111452, 40.589187 ], [ -74.1112351, 40.5901293 ], [ -74.111144, 40.590363 ], [ -74.1110008, 40.590721599999988 ], [ -74.1108772, 40.5910688 ], [ -74.1108387, 40.5912719 ], [ -74.1108397, 40.5914913 ], [ -74.1109673, 40.5917307 ], [ -74.1114709, 40.5918236 ], [ -74.1120159, 40.591983899999988 ], [ -74.1116983, 40.5933265 ], [ -74.1121447, 40.594252 ], [ -74.1141331, 40.5952295 ], [ -74.1143442, 40.595234499999989 ], [ -74.1145534, 40.5952124 ], [ -74.1145744, 40.5951896 ], [ -74.1147315, 40.5947067 ], [ -74.1150591, 40.5937602 ], [ -74.1151595, 40.592822 ], [ -74.1151544, 40.5923122 ], [ -74.1151793, 40.5920386 ], [ -74.1152663, 40.5915235 ], [ -74.1153903, 40.591033 ], [ -74.1154306, 40.59077 ], [ -74.1154414, 40.5906486 ], [ -74.1155153, 40.5904812 ], [ -74.115588, 40.5903851 ], [ -74.115628, 40.590357 ], [ -74.115676, 40.5903391 ], [ -74.1159186, 40.5903446 ], [ -74.1168421, 40.5886729 ], [ -74.1179793, 40.5870115 ], [ -74.1178371, 40.5855184 ] ] ] ] } },
{ "type": "Feature", "properties": { "golf_name": "Silver Lake Golf Course" }, "geometry": { "type": "MultiPolygon", "coordinates": [ [ [ [ -74.1072899, 40.6196506 ], [ -74.1062418, 40.6192016 ], [ -74.1060039, 40.619099 ], [ -74.1059086, 40.6190496 ], [ -74.1057224, 40.6189349 ], [ -74.1056007, 40.6188341 ], [ -74.1053665, 40.6186367 ], [ -74.1042918, 40.6193147 ], [ -74.1019292, 40.62111 ], [ -74.1017501, 40.6211198 ], [ -74.1011277, 40.6211014 ], [ -74.1002689, 40.621274 ], [ -74.0992196, 40.6215019 ], [ -74.0990131, 40.6214894 ], [ -74.098421, 40.6213879 ], [ -74.0980866, 40.6213306 ], [ -74.0980209, 40.6213151 ], [ -74.0978608, 40.6212739 ], [ -74.0978425, 40.6212698 ], [ -74.0973696, 40.6216551 ], [ -74.0972723, 40.6217343 ], [ -74.0965403, 40.6223285 ], [ -74.0965428, 40.6223369 ], [ -74.0965161, 40.6223578 ], [ -74.0967598, 40.6227319 ], [ -74.0967486, 40.6229506 ], [ -74.0967977, 40.623208 ], [ -74.0968852, 40.6233313 ], [ -74.0970184, 40.6234302 ], [ -74.0975837, 40.6237729 ], [ -74.0979378, 40.6241457 ], [ -74.0980444, 40.6244036 ], [ -74.0981938, 40.6246636 ], [ -74.0986269, 40.6251795 ], [ -74.0987783, 40.62544 ], [ -74.0988677, 40.6256003 ], [ -74.0989398, 40.6258115 ], [ -74.0989736, 40.6260122 ], [ -74.0989703, 40.6262026 ], [ -74.0989233, 40.6263863 ], [ -74.0988343, 40.626549 ], [ -74.0986862, 40.626774 ], [ -74.0983796, 40.627084 ], [ -74.0981373, 40.6273489 ], [ -74.0978799, 40.6277406 ], [ -74.0976162, 40.628192 ], [ -74.0974878, 40.6283631 ], [ -74.0973387, 40.6284879 ], [ -74.0971625, 40.6285635 ], [ -74.0969795, 40.6286423 ], [ -74.0968719, 40.6286975 ], [ -74.0967515, 40.6288062 ], [ -74.0966069, 40.6289799 ], [ -74.0963844, 40.6292691 ], [ -74.0962623, 40.6294958 ], [ -74.0961782, 40.6296753 ], [ -74.09609, 40.6298325 ], [ -74.0959435, 40.6299967 ], [ -74.0957614, 40.6301779 ], [ -74.0956651, 40.6303043 ], [ -74.0956061, 40.630438 ], [ -74.0955992, 40.6305984 ], [ -74.0956362, 40.6307748 ], [ -74.0957192, 40.630994 ], [ -74.0958186, 40.6311577 ], [ -74.0959221, 40.6312851 ], [ -74.095986, 40.63141 ], [ -74.0960184, 40.6315364 ], [ -74.0960227, 40.6315891 ], [ -74.096013, 40.6316362 ], [ -74.0960565, 40.631668 ], [ -74.0963558, 40.6317187 ], [ -74.0964602, 40.6317256 ], [ -74.096922, 40.6318093 ], [ -74.0970147, 40.6318129 ], [ -74.0971114, 40.6318131 ], [ -74.097295300000013, 40.6317986 ], [ -74.0974656, 40.631779 ], [ -74.0976916, 40.6317404 ], [ -74.0978432, 40.6316963 ], [ -74.097998, 40.6316304 ], [ -74.0981786, 40.63155 ], [ -74.0982648, 40.6315054 ], [ -74.0982864, 40.6314901 ], [ -74.0983013, 40.6314753 ], [ -74.0983058, 40.6314587 ], [ -74.0981623, 40.6306631 ], [ -74.0980567, 40.6301022 ], [ -74.0980545, 40.6300907 ], [ -74.0980976, 40.6300858 ], [ -74.0982393, 40.6300698 ], [ -74.0991819, 40.6299656 ], [ -74.0990491, 40.6292676 ], [ -74.0990076, 40.6290493 ], [ -74.0989485, 40.6287388 ], [ -74.0988284, 40.6285271 ], [ -74.0987923, 40.6284335 ], [ -74.0987283, 40.62817 ], [ -74.0987755, 40.6281094 ], [ -74.0989933, 40.6280808 ], [ -74.0989478, 40.6278728 ], [ -74.098920400000011, 40.6277475 ], [ -74.0997088, 40.6276482 ], [ -74.1003985, 40.6274435 ], [ -74.1005549, 40.6273668 ], [ -74.1005482, 40.6273256 ], [ -74.1003874, 40.6263398 ], [ -74.1002085, 40.6254953 ], [ -74.1001125, 40.6249981 ], [ -74.1000609, 40.6250028 ], [ -74.1000405, 40.6248753 ], [ -74.1000879, 40.6248709 ], [ -74.100051, 40.6246362 ], [ -74.1000962, 40.6246119 ], [ -74.1005441, 40.6245752 ], [ -74.1006246, 40.6245773 ], [ -74.1007265, 40.6245874 ], [ -74.1009933, 40.6245622 ], [ -74.1014708, 40.6245154 ], [ -74.1023043, 40.624431199999989 ], [ -74.1025284, 40.6244377 ], [ -74.1025137, 40.6242877 ], [ -74.1023871, 40.6242761 ], [ -74.1023597, 40.6241714 ], [ -74.102256200000014, 40.6234693 ], [ -74.1022536, 40.6233412 ], [ -74.1022666, 40.6232799 ], [ -74.1022903, 40.6232332 ], [ -74.1023288, 40.6231997 ], [ -74.1023855, 40.6231878 ], [ -74.1027156, 40.6231391 ], [ -74.1027314, 40.6231306 ], [ -74.1027379, 40.6231189 ], [ -74.1027361, 40.6231022 ], [ -74.1027278, 40.6230591 ], [ -74.1026812, 40.6228162 ], [ -74.1038948, 40.622677 ], [ -74.1038763, 40.6225811 ], [ -74.1038915, 40.6225055 ], [ -74.1039303, 40.6224377 ], [ -74.1037956, 40.6216721 ], [ -74.1054092, 40.6215157 ], [ -74.1053491, 40.6212033 ], [ -74.1067823, 40.6206465 ], [ -74.106514, 40.6202861 ], [ -74.1072899, 40.6196506 ] ] ] ] } },
{ "type": "Feature", "properties": { "golf_name": "South Shore Golf Course" }, "geometry": { "type": "MultiPolygon", "coordinates": [ [ [ [ -74.210889, 40.5552212 ], [ -74.2107283, 40.5548306 ], [ -74.2104295, 40.5540621 ], [ -74.2102263, 40.5535395 ], [ -74.2101097, 40.5535636 ], [ -74.2097559, 40.5526714 ], [ -74.2098673, 40.5526496 ], [ -74.2096787, 40.5521947 ], [ -74.2094863, 40.5517306 ], [ -74.206752600000016, 40.5449856 ], [ -74.2065738, 40.5445802 ], [ -74.2063932, 40.5441313 ], [ -74.2061641, 40.5437147 ], [ -74.206142, 40.5436746 ], [ -74.2061155, 40.543653 ], [ -74.2060835, 40.5436416 ], [ -74.2060292, 40.543634 ], [ -74.2059456, 40.5436472 ], [ -74.20374, 40.5441468 ], [ -74.2036882, 40.544186499999988 ], [ -74.2036557, 40.544238 ], [ -74.2036814, 40.5443527 ], [ -74.2042486, 40.5456703 ], [ -74.204422, 40.5460875 ], [ -74.202751, 40.5471465 ], [ -74.2026188, 40.5472355 ], [ -74.2024866, 40.5473092 ], [ -74.2023602, 40.5470455 ], [ -74.2016915, 40.5471768 ], [ -74.2015838, 40.5472111 ], [ -74.2015212, 40.547321499999988 ], [ -74.2015756, 40.5473474 ], [ -74.2014669, 40.5476779 ], [ -74.2014538, 40.5476932 ], [ -74.2014091, 40.5477169 ], [ -74.2013388, 40.5477632 ], [ -74.2013033, 40.5478193 ], [ -74.2000511, 40.5481335 ], [ -74.2000172, 40.5481757 ], [ -74.200294, 40.5488497 ], [ -74.2010794, 40.550738 ], [ -74.2017539, 40.5521902 ], [ -74.2018951, 40.5524739 ], [ -74.2021, 40.5528857 ], [ -74.2026446, 40.5540569 ], [ -74.2030868, 40.5550499 ], [ -74.2031309, 40.5551141 ], [ -74.2031843, 40.5552302 ], [ -74.2032942, 40.5554429 ], [ -74.203396, 40.5556681 ], [ -74.2034899, 40.5558684 ], [ -74.2035235, 40.5559242 ], [ -74.2035821, 40.5560259 ], [ -74.2036524, 40.5561356 ], [ -74.2036836, 40.5561717 ], [ -74.2040024, 40.5564444 ], [ -74.2040238, 40.5564727 ], [ -74.2040302, 40.5564807 ], [ -74.2040586, 40.5564793 ], [ -74.2040715, 40.5564957 ], [ -74.2045303, 40.5562705 ], [ -74.2050461, 40.5561126 ], [ -74.2055195, 40.5560194 ], [ -74.2059928, 40.5559699 ], [ -74.2067866, 40.5559452 ], [ -74.207728300000014, 40.5559204 ], [ -74.2082416, 40.5558767 ], [ -74.209033, 40.5556959 ], [ -74.2094625, 40.5555994 ], [ -74.2104554, 40.5553763 ], [ -74.210889, 40.5552212 ] ] ] ] } },
{ "type": "Feature", "properties": { "golf_name": "Lake Success Golf Club" }, "geometry": { "type": "MultiPolygon", "coordinates": [ [ [ [ -73.7061331, 40.7658039 ], [ -73.7061987, 40.7659438 ], [ -73.7063628, 40.7662941 ], [ -73.7067137, 40.7670347 ], [ -73.7070766, 40.7676077 ], [ -73.707544, 40.7682319 ], [ -73.7080105, 40.7680548 ], [ -73.7082153, 40.7683524 ], [ -73.708547900000013, 40.7683625 ], [ -73.7090997, 40.7685239 ], [ -73.7093584, 40.7688599 ], [ -73.7094228, 40.7689435 ], [ -73.7106573, 40.768829 ], [ -73.7111237, 40.7687615 ], [ -73.7115455, 40.7686764 ], [ -73.7120079, 40.7685525 ], [ -73.7125073, 40.7683902 ], [ -73.7128218, 40.7682663 ], [ -73.7131803, 40.7681061 ], [ -73.713498, 40.767942 ], [ -73.7138022, 40.767761799999988 ], [ -73.714051, 40.7675996 ], [ -73.7142789, 40.7674378 ], [ -73.7148286, 40.7669871 ], [ -73.7161893, 40.7658613 ], [ -73.7165067, 40.7656353 ], [ -73.7171018, 40.7652596 ], [ -73.7177224, 40.764955 ], [ -73.7182805, 40.7647234 ], [ -73.7188017, 40.7645465 ], [ -73.7195797, 40.7643255 ], [ -73.7199029, 40.7642358 ], [ -73.7203128, 40.7641507 ], [ -73.7204376, 40.7641348 ], [ -73.7194709, 40.7635399 ], [ -73.717970200000011, 40.7626232 ], [ -73.7167382, 40.7618706 ], [ -73.7166322, 40.761877 ], [ -73.7157973, 40.7619278 ], [ -73.7154136, 40.7619943 ], [ -73.7150599, 40.7621362 ], [ -73.7146841, 40.7622869 ], [ -73.7141584, 40.7624372 ], [ -73.7143676, 40.7625022 ], [ -73.7145017, 40.7626363 ], [ -73.7146572, 40.7627135 ], [ -73.7147431, 40.7627907 ], [ -73.7149201, 40.7628273 ], [ -73.7150265, 40.7628071 ], [ -73.7150697, 40.7628126 ], [ -73.7151347, 40.762843499999988 ], [ -73.7151926, 40.7628659 ], [ -73.7152413, 40.7629034 ], [ -73.7153051, 40.7631774 ], [ -73.7151722, 40.763237599999989 ], [ -73.7150381, 40.763327 ], [ -73.7149201, 40.7634245 ], [ -73.7148182, 40.763453 ], [ -73.7147002, 40.7634936 ], [ -73.7145714, 40.763518 ], [ -73.7143837, 40.7634896 ], [ -73.7141959, 40.763453 ], [ -73.714035, 40.7633961 ], [ -73.7139009, 40.7634002 ], [ -73.7138258, 40.7633311 ], [ -73.7136809, 40.7633026 ], [ -73.7135146, 40.763262 ], [ -73.7133537, 40.7632336 ], [ -73.7132142, 40.7631808 ], [ -73.713005, 40.7631848 ], [ -73.7128119, 40.763164499999988 ], [ -73.7125651, 40.7632133 ], [ -73.7124364, 40.7632661 ], [ -73.7123559, 40.7632458 ], [ -73.7122754, 40.7631564 ], [ -73.7122379, 40.7630995 ], [ -73.712141300000013, 40.7630507 ], [ -73.7120287, 40.7630264 ], [ -73.711916, 40.7629695 ], [ -73.7117729, 40.7629258 ], [ -73.7117479, 40.7629409 ], [ -73.7117189, 40.7629711 ], [ -73.711562, 40.7631726 ], [ -73.7114547, 40.7633108 ], [ -73.7111865, 40.7635952 ], [ -73.7109397, 40.7637902 ], [ -73.7107359, 40.7639771 ], [ -73.7106286, 40.7641234 ], [ -73.71058570000001, 40.7643184 ], [ -73.7105105, 40.7644728 ], [ -73.7105213, 40.7646191 ], [ -73.7104247, 40.7646922 ], [ -73.7102638, 40.7647653 ], [ -73.7099634, 40.7648385 ], [ -73.7097273, 40.7648872 ], [ -73.7094913, 40.7648304 ], [ -73.7092767, 40.7648791 ], [ -73.7090729, 40.7649197 ], [ -73.7087939, 40.7649522 ], [ -73.7085405, 40.7649559 ], [ -73.7084297, 40.7649838 ], [ -73.7082955, 40.765042 ], [ -73.7080751, 40.7651066 ], [ -73.7078496, 40.765219 ], [ -73.7076352, 40.7652935 ], [ -73.7072162, 40.7654132 ], [ -73.7070911, 40.7654557 ], [ -73.7069997, 40.7654874 ], [ -73.7069474, 40.7655056 ], [ -73.7068721, 40.7655317 ], [ -73.7065434, 40.7656458 ], [ -73.7064067, 40.765698 ], [ -73.706147, 40.7657968 ], [ -73.7061331, 40.7658039 ] ] ] ] } },
{ "type": "Feature", "properties": { "golf_name": "Dyker Beach Golf Course" }, "geometry": { "type": "MultiPolygon", "coordinates": [ [ [ [ -74.0171885, 40.6077321 ], [ -74.017049, 40.6077973 ], [ -74.0147745, 40.6099801 ], [ -74.0162551, 40.6109982 ], [ -74.0156757, 40.6121874 ], [ -74.0139121, 40.6138957 ], [ -74.0184899, 40.6166584 ], [ -74.0193089, 40.6171575 ], [ -74.0198531, 40.6174796 ], [ -74.0199966, 40.6175692 ], [ -74.0209764, 40.6181566 ], [ -74.0210223, 40.6181285 ], [ -74.021087100000017, 40.6181085 ], [ -74.0211605, 40.6181093 ], [ -74.0211823, 40.6181118 ], [ -74.0215845, 40.6172088 ], [ -74.0217503, 40.6167781 ], [ -74.0224907, 40.6149716 ], [ -74.0230171, 40.6136743 ], [ -74.0244157, 40.6102846 ], [ -74.0244734, 40.6100534 ], [ -74.0244653, 40.6099109 ], [ -74.024409, 40.6097846 ], [ -74.0242695, 40.6096055 ], [ -74.0217889, 40.6081322 ], [ -74.020678, 40.607498 ], [ -74.020096, 40.6072841 ], [ -74.0193477, 40.6071263 ], [ -74.018535, 40.6070245 ], [ -74.0183204, 40.6070087 ], [ -74.0181112, 40.6070398 ], [ -74.0179476, 40.607086599999988 ], [ -74.0177893, 40.6071538 ], [ -74.0176284, 40.6072841 ], [ -74.0171885, 40.6077321 ] ] ] ] } },
{ "type": "Feature", "properties": { "golf_name": "Flushing Meadows Golf Center" }, "geometry": { "type": "MultiPolygon", "coordinates": [ [ [ [ -73.8408686, 40.7524486 ], [ -73.8411314, 40.7521572 ], [ -73.8411936, 40.7521912 ], [ -73.8415312, 40.7517124 ], [ -73.8417266, 40.751816 ], [ -73.8417357, 40.7518074 ], [ -73.8418645, 40.7517039 ], [ -73.8419041, 40.7516761 ], [ -73.8418504, 40.7515951 ], [ -73.8416618, 40.751282 ], [ -73.8414627, 40.7509582 ], [ -73.8416942, 40.7508774 ], [ -73.8415307, 40.7506594 ], [ -73.8410771, 40.750346 ], [ -73.8409428, 40.7502388 ], [ -73.840834, 40.7502278 ], [ -73.840638, 40.7502938 ], [ -73.8400248, 40.7505714 ], [ -73.8395966, 40.7507198 ], [ -73.8391068, 40.7508243 ], [ -73.8386133, 40.7508518 ], [ -73.8382722, 40.7508408 ], [ -73.8381415, 40.7508903 ], [ -73.8380944, 40.7509892 ], [ -73.8382613, 40.7513988 ], [ -73.8384101, 40.7516187 ], [ -73.8385988, 40.7517424 ], [ -73.8387983, 40.7519183 ], [ -73.8389253, 40.7521465 ], [ -73.8390052, 40.7524571 ], [ -73.839241, 40.752495599999989 ], [ -73.839429700000011, 40.7526055 ], [ -73.8396259, 40.7525989 ], [ -73.839529, 40.7524379 ], [ -73.8395408, 40.7522375 ], [ -73.8395664, 40.7520294 ], [ -73.8396054, 40.7517809 ], [ -73.8396361, 40.7514126 ], [ -73.8397656, 40.7512118 ], [ -73.8399176, 40.7511917 ], [ -73.8399969, 40.7512321 ], [ -73.840055800000016, 40.7514398 ], [ -73.8402906, 40.7518471 ], [ -73.8403945, 40.7520583 ], [ -73.8403751, 40.7521075 ], [ -73.8403679, 40.7523818 ], [ -73.8408686, 40.7524486 ] ] ] ] } },
{ "type": "Feature", "properties": { "golf_name": "Aviator Golf Center" }, "geometry": { "type": "MultiPolygon", "coordinates": [ [ [ [ -73.9034682, 40.5922584 ], [ -73.9057758, 40.5908129 ], [ -73.9058965, 40.5900878 ], [ -73.9052339, 40.5893727 ], [ -73.9032443, 40.5880713 ], [ -73.9007687, 40.5897217 ], [ -73.9034682, 40.5922584 ] ] ] ] } },
{ "type": "Feature", "properties": { "golf_name": "Jacob Riis Park Golf Course" }, "geometry": { "type": "MultiPolygon", "coordinates": [ [ [ [ -73.8797979, 40.5638885 ], [ -73.8794331, 40.5637581 ], [ -73.8791596, 40.5641433 ], [ -73.8789235, 40.5643307 ], [ -73.8787197, 40.56451 ], [ -73.8785051, 40.5646975 ], [ -73.8782476, 40.5648442 ], [ -73.878033, 40.5649501 ], [ -73.8777219, 40.5650744 ], [ -73.877679, 40.5651396 ], [ -73.87762, 40.5652089 ], [ -73.8776683, 40.5653189 ], [ -73.8777058, 40.5654371 ], [ -73.8777004, 40.565575699999989 ], [ -73.8776092, 40.565645 ], [ -73.8775341, 40.5657102 ], [ -73.8784568, 40.5672546 ], [ -73.8797014, 40.566843 ], [ -73.8806509, 40.5666108 ], [ -73.8814019, 40.5665007 ], [ -73.8811659, 40.5661014 ], [ -73.8813268, 40.5660321 ], [ -73.8813482, 40.5659832 ], [ -73.8814287, 40.565918 ], [ -73.8814824, 40.5658935 ], [ -73.8814073, 40.5656898 ], [ -73.8810961, 40.5653352 ], [ -73.881262400000011, 40.5652782 ], [ -73.880371900000014, 40.5637622 ], [ -73.8797979, 40.5638885 ] ] ] ] } },
{ "type": "Feature", "properties": { "golf_name": "Marine Park Golf Course" }, "geometry": { "type": "MultiPolygon", "coordinates": [ [ [ [ -73.9238374, 40.603229 ], [ -73.9234346, 40.6030136 ], [ -73.9227962, 40.602871 ], [ -73.9221187, 40.6029164 ], [ -73.9214283, 40.6028995 ], [ -73.92096690000001, 40.6028466 ], [ -73.9204198, 40.6026592 ], [ -73.9198763, 40.6025214 ], [ -73.9187552, 40.6017842 ], [ -73.9175965, 40.6010592 ], [ -73.9170332, 40.6006967 ], [ -73.9165236, 40.6002527 ], [ -73.9165397, 40.599988 ], [ -73.9164217, 40.5996255 ], [ -73.9158295, 40.5992357 ], [ -73.9156943, 40.5991453 ], [ -73.9155675, 40.5990462 ], [ -73.91552, 40.5989554 ], [ -73.9154881, 40.5989014 ], [ -73.915405, 40.5988585 ], [ -73.9153114, 40.5988518 ], [ -73.915149, 40.5987238 ], [ -73.9151374, 40.598682 ], [ -73.9150892, 40.5985811 ], [ -73.9150615, 40.598469 ], [ -73.9149749, 40.598314 ], [ -73.9149366, 40.5982014 ], [ -73.914848, 40.5980489 ], [ -73.9147394, 40.5979538 ], [ -73.9146291, 40.5978953 ], [ -73.9144976, 40.5977161 ], [ -73.9143647, 40.5975162 ], [ -73.9141059, 40.5972378 ], [ -73.9139068, 40.5970817 ], [ -73.9136866, 40.5969738 ], [ -73.91353860000001, 40.5968502 ], [ -73.9134268, 40.5966559 ], [ -73.9132467, 40.5962653 ], [ -73.9131202, 40.5959707 ], [ -73.9130008, 40.595882 ], [ -73.9125395, 40.5955011 ], [ -73.9124835, 40.595382 ], [ -73.912416, 40.5951505 ], [ -73.912300500000015, 40.5950231 ], [ -73.912259, 40.5949403 ], [ -73.9122288, 40.5948141 ], [ -73.9121801, 40.5946801 ], [ -73.9121438, 40.5946269 ], [ -73.9120895, 40.5946045 ], [ -73.9120509, 40.5945693 ], [ -73.9120184, 40.5944004 ], [ -73.9119916, 40.5943326 ], [ -73.9119928, 40.5942893 ], [ -73.9120281, 40.5940562 ], [ -73.9120778, 40.5939008 ], [ -73.912035, 40.5936947 ], [ -73.9120092, 40.5935947 ], [ -73.9120244, 40.5933821 ], [ -73.9120041, 40.5932921 ], [ -73.9119559, 40.5932676 ], [ -73.9119236, 40.5932348 ], [ -73.911946, 40.5931763 ], [ -73.9119725, 40.5931731 ], [ -73.9120054, 40.5931938 ], [ -73.9120333, 40.5931635 ], [ -73.9120247, 40.5930444 ], [ -73.9119587, 40.5930211 ], [ -73.9119249, 40.592984799999989 ], [ -73.9118682, 40.5928692 ], [ -73.9118679, 40.5927624 ], [ -73.9119454, 40.592666 ], [ -73.9119346, 40.5924992 ], [ -73.911849, 40.5924125 ], [ -73.9118236, 40.5923629 ], [ -73.9117537, 40.5923262 ], [ -73.9117251, 40.5921804 ], [ -73.911707, 40.5919454 ], [ -73.9117225, 40.5918406 ], [ -73.9116964, 40.5916609 ], [ -73.9116343, 40.5914806 ], [ -73.911575, 40.5913751 ], [ -73.9115397, 40.5912742 ], [ -73.9115307, 40.5911355 ], [ -73.9115183, 40.5909593 ], [ -73.9115514, 40.5908487 ], [ -73.9115919, 40.5906785 ], [ -73.9115983, 40.5906106 ], [ -73.9115889, 40.5903898 ], [ -73.9116183, 40.5902737 ], [ -73.9116748, 40.5900809 ], [ -73.91174070000001, 40.5899281 ], [ -73.9117154, 40.5898045 ], [ -73.9116948, 40.5897182 ], [ -73.9117024, 40.5895877 ], [ -73.9116892, 40.5892285 ], [ -73.9118055, 40.5890449 ], [ -73.9118958, 40.5888515 ], [ -73.9119282, 40.5886075 ], [ -73.9119394, 40.5884394 ], [ -73.9119205, 40.5882725 ], [ -73.9118601, 40.5880394 ], [ -73.911748, 40.5876908 ], [ -73.9113081, 40.5873724 ], [ -73.9111484, 40.5873318 ], [ -73.9109178, 40.5873237 ], [ -73.9105422, 40.5875274 ], [ -73.910207, 40.5878305 ], [ -73.9097846, 40.5882472 ], [ -73.9097683, 40.588261 ], [ -73.9094506, 40.5885912 ], [ -73.9091031, 40.5891159 ], [ -73.9088724, 40.5896048 ], [ -73.9084156, 40.5910291 ], [ -73.9084288, 40.591805 ], [ -73.9085747, 40.5926328 ], [ -73.9087892, 40.5933692 ], [ -73.9088625, 40.5936294 ], [ -73.909742, 40.5964976 ], [ -73.9112869, 40.5979053 ], [ -73.9131425, 40.5994275 ], [ -73.913817900000012, 40.6000184 ], [ -73.912957, 40.6005862 ], [ -73.912822100000014, 40.6006804 ], [ -73.9175804, 40.6050058 ], [ -73.9199139, 40.6070625 ], [ -73.9206649, 40.6065697 ], [ -73.9216199, 40.6074811 ], [ -73.924429300000014, 40.6056241 ], [ -73.9246292, 40.6053886 ], [ -73.92514, 40.6050737 ], [ -73.9255135, 40.604605 ], [ -73.9243264, 40.6036685 ], [ -73.9238374, 40.603229 ] ] ] ] } },
{ "type": "Feature", "properties": { "golf_name": "Alley Pond Golf Center" }, "geometry": { "type": "MultiPolygon", "coordinates": [ [ [ [ -73.7487913, 40.7641802 ], [ -73.7470971, 40.7645667 ], [ -73.7471786, 40.7646077 ], [ -73.7473697, 40.7648038 ], [ -73.7477736, 40.7651874 ], [ -73.747749, 40.7652304 ], [ -73.7481643, 40.7655666 ], [ -73.7484238, 40.7657809 ], [ -73.7487189, 40.7660206 ], [ -73.7493425, 40.7665733 ], [ -73.7499013, 40.7663935 ], [ -73.7504321, 40.7655702 ], [ -73.7501092, 40.7645417 ], [ -73.7501092, 40.7644848 ], [ -73.7502165, 40.764382399999988 ], [ -73.7501865, 40.7643011 ], [ -73.7500513, 40.7641646 ], [ -73.7498668, 40.7640639 ], [ -73.7498668, 40.7639582 ], [ -73.7487913, 40.7641802 ] ] ] ] } },
{ "type": "Feature", "properties": { "golf_name": "Forest Park Golf Course" }, "geometry": { "type": "MultiPolygon", "coordinates": [ [ [ [ -73.868661, 40.6969757 ], [ -73.8684826, 40.6969193 ], [ -73.8682777, 40.6969132 ], [ -73.8681232, 40.6969234 ], [ -73.8672466, 40.6970885 ], [ -73.8664194, 40.6972319 ], [ -73.8659733, 40.6972828 ], [ -73.865809900000016, 40.6972786 ], [ -73.865653, 40.6972574 ], [ -73.865397, 40.6972085 ], [ -73.8651304, 40.6971414 ], [ -73.8649464, 40.6971186 ], [ -73.8647479, 40.697119199999989 ], [ -73.8644136, 40.6971279 ], [ -73.8642914, 40.6971127 ], [ -73.8641719, 40.6970843 ], [ -73.8639658, 40.6970108 ], [ -73.8636511, 40.6969594 ], [ -73.8633381, 40.6969677 ], [ -73.863012, 40.6970426 ], [ -73.8626233, 40.6971699 ], [ -73.8622344, 40.6972296 ], [ -73.8616845, 40.6973161 ], [ -73.8612573, 40.6973344 ], [ -73.8605722, 40.6974159 ], [ -73.8601361, 40.6975796 ], [ -73.8597807, 40.69775 ], [ -73.8590664, 40.6979032 ], [ -73.8589771, 40.6980036 ], [ -73.8589546, 40.6981266 ], [ -73.8589758, 40.6983965 ], [ -73.8590224, 40.6986661 ], [ -73.8590976, 40.6989443 ], [ -73.8591525, 40.6991658 ], [ -73.8592378, 40.699387 ], [ -73.8593306, 40.6996022 ], [ -73.8594664, 40.6998167 ], [ -73.8597019, 40.6999952 ], [ -73.8603574, 40.700309 ], [ -73.8606795, 40.7005414 ], [ -73.8608903, 40.7007444 ], [ -73.8610945, 40.701123 ], [ -73.8614256, 40.7015332 ], [ -73.8618664, 40.7019555 ], [ -73.8622376, 40.7023396 ], [ -73.8624061, 40.7024358 ], [ -73.8625814, 40.7024662 ], [ -73.863123, 40.7025405 ], [ -73.8636836, 40.7026228 ], [ -73.8643869, 40.7026627 ], [ -73.8650322, 40.7025706 ], [ -73.8656019, 40.7024488 ], [ -73.8659385, 40.7023761 ], [ -73.8662062, 40.7023183 ], [ -73.866512, 40.7022361 ], [ -73.8668835, 40.7020266 ], [ -73.8672472, 40.7017753 ], [ -73.8674933, 40.7015805 ], [ -73.8676476, 40.7014036 ], [ -73.8677812, 40.7012578 ], [ -73.8678542, 40.701108 ], [ -73.8680084, 40.7008611 ], [ -73.8681436, 40.7003409 ], [ -73.8682696, 40.6995448 ], [ -73.868235, 40.6991412 ], [ -73.8683386, 40.6987467 ], [ -73.8688458, 40.6981173 ], [ -73.8688112, 40.6977767 ], [ -73.8687296, 40.6971422 ], [ -73.868661, 40.6969757 ] ] ] ] } },
{ "type": "Feature", "properties": { "golf_name": "Bally's Golf Links at Ferry Point" }, "geometry": { "type": "MultiPolygon", "coordinates": [ [ [ [ -73.8241105, 40.8173743 ], [ -73.8242548, 40.8173927 ], [ -73.8244784, 40.8176666 ], [ -73.8245211, 40.8178158 ], [ -73.824639, 40.8178835 ], [ -73.8247081, 40.8179204 ], [ -73.8247955, 40.8181158 ], [ -73.8249399, 40.8182188 ], [ -73.8250496, 40.8184804 ], [ -73.8250923, 40.8185665 ], [ -73.8253424, 40.8186757 ], [ -73.8254155, 40.8187342 ], [ -73.8254704, 40.8188972 ], [ -73.8253932, 40.8190403 ], [ -73.8254399, 40.8191265 ], [ -73.825545600000012, 40.8191741 ], [ -73.8256534, 40.819228 ], [ -73.8257469, 40.8193326 ], [ -73.8258953, 40.8194433 ], [ -73.8261392, 40.8195326 ], [ -73.8262286, 40.8195972 ], [ -73.8262469, 40.8197541 ], [ -73.8264624, 40.8199233 ], [ -73.8264847, 40.8200864 ], [ -73.8265986, 40.8201587 ], [ -73.8267287, 40.820254 ], [ -73.8267815, 40.8203186 ], [ -73.82681, 40.8205971 ], [ -73.8268872, 40.8207201 ], [ -73.8270133, 40.8207663 ], [ -73.8271657, 40.8208001 ], [ -73.8273202, 40.8208663 ], [ -73.8275885, 40.8210324 ], [ -73.8277328, 40.8210447 ], [ -73.8278245, 40.8211478 ], [ -73.8283782, 40.8208781 ], [ -73.8285253, 40.8210391 ], [ -73.8317975, 40.8194835 ], [ -73.8318101, 40.8194617 ], [ -73.8316436, 40.819267 ], [ -73.8332275, 40.8185086 ], [ -73.833722, 40.819090599999988 ], [ -73.8337642, 40.8190691 ], [ -73.8340985, 40.8192098 ], [ -73.8350507, 40.8182627 ], [ -73.8355187, 40.8177899 ], [ -73.8356928, 40.8176143 ], [ -73.8356545, 40.8174195 ], [ -73.8356396, 40.8173435 ], [ -73.8356872, 40.8173101 ], [ -73.8356806, 40.8166819 ], [ -73.8356846, 40.816525 ], [ -73.8356911, 40.816383699999989 ], [ -73.8357414, 40.8160704 ], [ -73.8357956, 40.8159256 ], [ -73.8358374, 40.8158342 ], [ -73.8358417, 40.8157185 ], [ -73.8358316, 40.8153435 ], [ -73.8358285, 40.8152473 ], [ -73.8357895, 40.8148077 ], [ -73.8357825, 40.8146836 ], [ -73.8357802, 40.8145559 ], [ -73.8357803, 40.8144571 ], [ -73.8357858, 40.8142462 ], [ -73.8357935, 40.814161 ], [ -73.8358027, 40.8140953 ], [ -73.8358612, 40.8137374 ], [ -73.8358874, 40.813556200000015 ], [ -73.8358928, 40.813478 ], [ -73.8358965, 40.8133896 ], [ -73.8358992, 40.8133151 ], [ -73.8359155, 40.8128756 ], [ -73.8359117, 40.8128016 ], [ -73.8359057, 40.8127408 ], [ -73.835899, 40.8126867 ], [ -73.8358873, 40.8126313 ], [ -73.8358678, 40.8125727 ], [ -73.8358397, 40.8125157 ], [ -73.835802, 40.8124532 ], [ -73.8357653, 40.8124034 ], [ -73.8355174, 40.8120946 ], [ -73.8353946, 40.8119191 ], [ -73.83535, 40.8118239 ], [ -73.835334800000012, 40.8117853 ], [ -73.8353202, 40.8117456 ], [ -73.8353086, 40.8117116 ], [ -73.8353002, 40.8116789 ], [ -73.835295, 40.8116438 ], [ -73.8352948, 40.8116061 ], [ -73.8352979, 40.8115724 ], [ -73.8353022, 40.8115356 ], [ -73.8353098, 40.8115011 ], [ -73.8353228, 40.8114653 ], [ -73.8353396, 40.8114291 ], [ -73.8353592, 40.8113907 ], [ -73.835378, 40.8113661 ], [ -73.8353973, 40.8113413 ], [ -73.8353819, 40.8113147 ], [ -73.835257, 40.8110985 ], [ -73.8335794, 40.8085342 ], [ -73.8330796, 40.808698 ], [ -73.8329861, 40.8088487 ], [ -73.8327341, 40.809618 ], [ -73.8324288, 40.8101121 ], [ -73.8313518, 40.8111289 ], [ -73.8308274, 40.8115289 ], [ -73.8302988, 40.812535 ], [ -73.8294573, 40.8127197 ], [ -73.8288436, 40.8122353 ], [ -73.8284574, 40.8121765 ], [ -73.827473, 40.8123577 ], [ -73.8274683, 40.8129053 ], [ -73.8274184, 40.813008 ], [ -73.8284598, 40.8149 ], [ -73.8234763, 40.8166847 ], [ -73.8234912, 40.816835 ], [ -73.8238171, 40.8174306 ], [ -73.8241105, 40.8173743 ] ] ] ] } },
{ "type": "Feature", "properties": { "golf_name": "Van Cortlandt Golf Course" }, "geometry": { "type": "MultiPolygon", "coordinates": [ [ [ [ -73.8866394, 40.9001256 ], [ -73.8865349, 40.9000727 ], [ -73.8876675, 40.8964425 ], [ -73.888235400000013, 40.895122 ], [ -73.8892727, 40.8930182 ], [ -73.8890037, 40.8928929 ], [ -73.8889411, 40.8925687 ], [ -73.8888279, 40.8924048 ], [ -73.888573, 40.891952 ], [ -73.888499, 40.8917303 ], [ -73.8884602, 40.8912956 ], [ -73.8885315, 40.89062 ], [ -73.8883563, 40.8903751 ], [ -73.8882826, 40.8903753 ], [ -73.8882226, 40.8903754 ], [ -73.8881517, 40.8904032 ], [ -73.8880808, 40.8904528 ], [ -73.8879945, 40.890578 ], [ -73.8879573, 40.890564 ], [ -73.8878479, 40.8905228 ], [ -73.8872838, 40.8913112 ], [ -73.8869943, 40.8918517 ], [ -73.8866015, 40.8932457 ], [ -73.886544, 40.8944225 ], [ -73.885792, 40.8957586 ], [ -73.8855716, 40.8966565 ], [ -73.8850304, 40.8982351 ], [ -73.885178900000014, 40.8987746 ], [ -73.8852611, 40.899054899999989 ], [ -73.8855525, 40.8994082 ], [ -73.886073, 40.899328 ], [ -73.8862555, 40.8994258 ], [ -73.8863065, 40.8995335 ], [ -73.886273, 40.899713 ], [ -73.8861678, 40.8998454 ], [ -73.8862449, 40.8999696 ], [ -73.8865186, 40.900118 ], [ -73.8872899, 40.9004832 ], [ -73.8880183, 40.9005394 ], [ -73.8884839, 40.9004364 ], [ -73.8891032, 40.8997976 ], [ -73.8896, 40.8992851 ], [ -73.8900982, 40.8978151 ], [ -73.8906093, 40.8963554 ], [ -73.8906745, 40.8961691 ], [ -73.8907688, 40.8958998 ], [ -73.8909423, 40.8956357 ], [ -73.8912539, 40.8951283 ], [ -73.8914454, 40.8946883 ], [ -73.8909917, 40.8941235 ], [ -73.8906276, 40.8945011 ], [ -73.8903372, 40.8945304 ], [ -73.8901171, 40.8945124 ], [ -73.8892478, 40.8943236 ], [ -73.8892897, 40.8942027 ], [ -73.8889478, 40.8940467 ], [ -73.8883939, 40.8951408 ], [ -73.8878467, 40.8964082 ], [ -73.8877558, 40.8967975 ], [ -73.8870933, 40.8990976 ], [ -73.886695, 40.9001538 ], [ -73.8866394, 40.9001256 ] ] ], [ [ [ -73.8848698, 40.8992524 ], [ -73.8847866, 40.8993974 ], [ -73.8846552, 40.8997948 ], [ -73.8844942, 40.9002581 ], [ -73.8844406, 40.9004335 ], [ -73.8843212, 40.900846 ], [ -73.8843226, 40.9009114 ], [ -73.8842864, 40.9011268 ], [ -73.8842328, 40.9012646 ], [ -73.8841495, 40.9015536 ], [ -73.8840583, 40.9018434 ], [ -73.8840919, 40.9020675 ], [ -73.8841322, 40.9022469 ], [ -73.884124, 40.9023776 ], [ -73.8840899, 40.9027486 ], [ -73.8840772, 40.9029452 ], [ -73.8839967, 40.9033568 ], [ -73.8839377, 40.9036923 ], [ -73.8838384, 40.9040815 ], [ -73.8838371, 40.9043339 ], [ -73.883729800000012, 40.9048276 ], [ -73.8836587, 40.9051266 ], [ -73.8836547, 40.9052878 ], [ -73.8836762, 40.9055674 ], [ -73.8837293, 40.9057432 ], [ -73.8837416, 40.9058843 ], [ -73.8837188, 40.9059543 ], [ -73.8839923, 40.9059934 ], [ -73.8843913, 40.9060111 ], [ -73.8848217, 40.906012 ], [ -73.8849459, 40.9052185 ], [ -73.8855658, 40.9033065 ], [ -73.8858398, 40.902471399999989 ], [ -73.8859944, 40.9019991 ], [ -73.8860704, 40.9017834 ], [ -73.8863254, 40.9010091 ], [ -73.8862268, 40.9006352 ], [ -73.8861471, 40.9001987 ], [ -73.8859822, 40.9001059 ], [ -73.8859132, 40.9001801 ], [ -73.8856498, 40.9000353 ], [ -73.8853504, 40.8996954 ], [ -73.8851379, 40.8994537 ], [ -73.8850012, 40.8992983 ], [ -73.8848698, 40.8992524 ] ] ] ] } },
{ "type": "Feature", "properties": { "golf_name": "Pelham Bay & Split Rock Golf Course" }, "geometry": { "type": "MultiPolygon", "coordinates": [ [ [ [ -73.8145436, 40.885909 ], [ -73.814782, 40.8855758 ], [ -73.8149013, 40.8850662 ], [ -73.8148652, 40.884517599999988 ], [ -73.8147843, 40.8837016 ], [ -73.8151543, 40.8825043 ], [ -73.8154708, 40.881389 ], [ -73.8156478, 40.8802249 ], [ -73.8151006, 40.8794705 ], [ -73.8143657, 40.8789433 ], [ -73.8143925, 40.8784403 ], [ -73.8138346, 40.8761527 ], [ -73.8122039, 40.8760959 ], [ -73.8118391, 40.875747 ], [ -73.8109379, 40.8748466 ], [ -73.8104819, 40.8740759 ], [ -73.8098381, 40.8751224 ], [ -73.8091354, 40.8764123 ], [ -73.808497, 40.8775683 ], [ -73.8085561, 40.878030599999988 ], [ -73.8087223, 40.8782943 ], [ -73.8087009, 40.8790041 ], [ -73.8085882, 40.8800221 ], [ -73.8087545, 40.8812673 ], [ -73.8086419, 40.8826017 ], [ -73.8082783, 40.8825706 ], [ -73.8075046, 40.8825043 ], [ -73.8073008, 40.8817865 ], [ -73.8064156, 40.881823 ], [ -73.8061635, 40.8825773 ], [ -73.8054608, 40.8835588 ], [ -73.8046347, 40.8849094 ], [ -73.8055458, 40.885341 ], [ -73.8065283, 40.8855664 ], [ -73.807606800000016, 40.8856105 ], [ -73.808892, 40.885738 ], [ -73.8098594, 40.88583 ], [ -73.8106977, 40.8860054 ], [ -73.8116419, 40.8863193 ], [ -73.8120298, 40.8864224 ], [ -73.8126643, 40.8865283 ], [ -73.8134351, 40.8865624 ], [ -73.8145436, 40.885909 ] ] ], [ [ [ -73.799753, 40.8833844 ], [ -73.7998013, 40.8837494 ], [ -73.7999016, 40.8843518 ], [ -73.8003324, 40.8845038 ], [ -73.8005202, 40.8845362 ], [ -73.801349, 40.8846503 ], [ -73.802015, 40.8846739 ], [ -73.8029663, 40.8848607 ], [ -73.8032667, 40.8849256 ], [ -73.8033687, 40.8847269 ], [ -73.8036637, 40.8844592 ], [ -73.8051336, 40.8820744 ], [ -73.8066946, 40.8796044 ], [ -73.8074349, 40.8783835 ], [ -73.8083093, 40.8769477 ], [ -73.809553800000018, 40.8749804 ], [ -73.8091032, 40.8747492 ], [ -73.80913, 40.8744044 ], [ -73.8088593, 40.8740714 ], [ -73.8080893, 40.8736256 ], [ -73.8078748, 40.8736013 ], [ -73.807298, 40.8737106 ], [ -73.8065444, 40.8738933 ], [ -73.8060133, 40.8740637 ], [ -73.8043772, 40.8747938 ], [ -73.8034491, 40.8752238 ], [ -73.8031702, 40.875386 ], [ -73.8024353, 40.87567 ], [ -73.801823700000014, 40.8759133 ], [ -73.8002895, 40.8762743 ], [ -73.7986426, 40.8768706 ], [ -73.7979238, 40.8770815 ], [ -73.7974088, 40.8773005 ], [ -73.7970762, 40.8776534 ], [ -73.7966363, 40.8781686 ], [ -73.7965827, 40.8782902 ], [ -73.7967329, 40.8785863 ], [ -73.7970655, 40.878923 ], [ -73.7974893, 40.8796206 ], [ -73.7981437, 40.880448 ], [ -73.7985031, 40.8812389 ], [ -73.7984709, 40.8820663 ], [ -73.7987553, 40.8827598 ], [ -73.7988143, 40.8828085 ], [ -73.7988035, 40.8828491 ], [ -73.7994991, 40.8832413 ], [ -73.799753, 40.8833844 ] ] ] ] } },
{ "type": "Feature", "properties": { "golf_name": "La Tourette Golf Course" }, "geometry": { "type": "MultiPolygon", "coordinates": [ [ [ [ -74.1524932, 40.5805126 ], [ -74.1525646, 40.5804737 ], [ -74.15277540000001, 40.5803519 ], [ -74.1532966, 40.5800198 ], [ -74.15333720000001, 40.579961 ], [ -74.1535565, 40.579588 ], [ -74.1535963, 40.5795204 ], [ -74.1541131, 40.5781392 ], [ -74.1544189, 40.5774838 ], [ -74.1544778, 40.5773426 ], [ -74.1544976, 40.5771862 ], [ -74.1545491, 40.5771095 ], [ -74.1546285, 40.5770706 ], [ -74.1547548, 40.5770487 ], [ -74.1548345, 40.5769786 ], [ -74.154876, 40.5769064 ], [ -74.154872, 40.5768226 ], [ -74.154752, 40.5765733 ], [ -74.1546026, 40.5764466 ], [ -74.1544239, 40.5763739 ], [ -74.1542816, 40.5763159 ], [ -74.1542757, 40.5761179 ], [ -74.1543243, 40.5758801 ], [ -74.1549508, 40.5745632 ], [ -74.154181, 40.5735665 ], [ -74.1541323, 40.5734735 ], [ -74.1540868, 40.5731982 ], [ -74.154050500000011, 40.573093 ], [ -74.1539848, 40.5730496 ], [ -74.1538888, 40.5730345 ], [ -74.1537275, 40.573095 ], [ -74.1536742, 40.573218 ], [ -74.1536103, 40.5733423 ], [ -74.1535412, 40.5734071 ], [ -74.1534772, 40.5734321 ], [ -74.1533819, 40.573421 ], [ -74.1532719, 40.5733686 ], [ -74.153151, 40.5733258 ], [ -74.1530525, 40.5733185 ], [ -74.1529575, 40.573339399999988 ], [ -74.1528379, 40.5734446 ], [ -74.1527105, 40.5735408 ], [ -74.1526457, 40.5735985 ], [ -74.1500719, 40.5735153 ], [ -74.1493146, 40.5736651 ], [ -74.1477961, 40.5740733 ], [ -74.1476328, 40.5741235 ], [ -74.1474228, 40.5742644 ], [ -74.147417, 40.5743496 ], [ -74.1474552, 40.5743681 ], [ -74.147488, 40.5744021 ], [ -74.1475125, 40.5744402 ], [ -74.1475249, 40.5744727 ], [ -74.1475491, 40.574516 ], [ -74.1475761, 40.5745445 ], [ -74.147596, 40.5745757 ], [ -74.1476162, 40.5746172 ], [ -74.1476403, 40.5746937 ], [ -74.1476639, 40.574805 ], [ -74.1476766, 40.5749224 ], [ -74.1476894, 40.5749666 ], [ -74.1474892, 40.5750657 ], [ -74.1475174, 40.5751034 ], [ -74.1476589, 40.5752603 ], [ -74.14787, 40.5754864 ], [ -74.1479212, 40.5755369 ], [ -74.1480981, 40.5757117 ], [ -74.1483181, 40.5759443 ], [ -74.1484753, 40.5761078 ], [ -74.148646, 40.5762671 ], [ -74.1488831, 40.576469599999989 ], [ -74.14911450000001, 40.5766694 ], [ -74.1493848, 40.576891 ], [ -74.1496535, 40.5771148 ], [ -74.1499266, 40.5773452 ], [ -74.1501293, 40.5775198 ], [ -74.1502615, 40.5776563 ], [ -74.1504441, 40.5778703 ], [ -74.1505375, 40.5780406 ], [ -74.1505878, 40.5782142 ], [ -74.1506252, 40.5784674 ], [ -74.1506597, 40.5787426 ], [ -74.1507143, 40.5790308 ], [ -74.1507531, 40.5791803 ], [ -74.1508221, 40.5793703 ], [ -74.1508976, 40.5795187 ], [ -74.1509544, 40.579611 ], [ -74.1510015, 40.5796804 ], [ -74.1510649, 40.5797595 ], [ -74.1511337, 40.5798204 ], [ -74.1512684, 40.5799141 ], [ -74.1514359, 40.580018 ], [ -74.151626, 40.5801259 ], [ -74.1519457, 40.5802827 ], [ -74.1524208, 40.5805126 ], [ -74.1524471, 40.5805183 ], [ -74.1524727, 40.5805165 ], [ -74.1524932, 40.5805126 ] ] ], [ [ [ -74.1483756, 40.577986 ], [ -74.1486302, 40.5781766 ], [ -74.1487968, 40.5784878 ], [ -74.1488564, 40.5788855 ], [ -74.1488417, 40.5793498 ], [ -74.1485767, 40.5795388 ], [ -74.1487299, 40.5798068 ], [ -74.1490555, 40.5805753 ], [ -74.1491601, 40.5809612 ], [ -74.1490958, 40.5814473 ], [ -74.1486423, 40.5821318 ], [ -74.1473114, 40.5832745 ], [ -74.1467739, 40.5839565 ], [ -74.1467454, 40.5840363 ], [ -74.1467473, 40.5841058 ], [ -74.1468227, 40.5841882 ], [ -74.1470096, 40.5842989 ], [ -74.1471393, 40.5844401 ], [ -74.147266, 40.5846466 ], [ -74.1476675, 40.5848904 ], [ -74.1479756, 40.58465 ], [ -74.1481929, 40.584475 ], [ -74.1488574, 40.5839327 ], [ -74.1494604, 40.5834326 ], [ -74.1501404, 40.5828875 ], [ -74.1503862, 40.5826849 ], [ -74.1510371, 40.5821706 ], [ -74.151211800000013, 40.5820058 ], [ -74.1523551, 40.5806531 ], [ -74.1523558, 40.5806294 ], [ -74.1523507, 40.5806125 ], [ -74.1523357, 40.5805994 ], [ -74.1522501, 40.5805536 ], [ -74.1518359, 40.580332 ], [ -74.1515382, 40.5801543 ], [ -74.1513442, 40.5800443 ], [ -74.151214200000013, 40.5799689 ], [ -74.1510898, 40.5798805 ], [ -74.150994, 40.579793 ], [ -74.150929, 40.5797133 ], [ -74.1508309, 40.5795712 ], [ -74.150775, 40.5794577 ], [ -74.1507385, 40.5793711 ], [ -74.1506883, 40.5792471 ], [ -74.1506518, 40.579125 ], [ -74.1506073, 40.5789517 ], [ -74.1505856, 40.5788356 ], [ -74.1505559, 40.5786051 ], [ -74.1505349, 40.5783906 ], [ -74.1505105, 40.5782669 ], [ -74.1504896, 40.5782008 ], [ -74.1504525, 40.5780922 ], [ -74.1503918, 40.5779684 ], [ -74.1503303, 40.5778769 ], [ -74.1502479, 40.5777696 ], [ -74.1501555, 40.5776548 ], [ -74.1500487, 40.5775509 ], [ -74.1499183, 40.5774374 ], [ -74.1497834, 40.5773198 ], [ -74.1495814, 40.5771534 ], [ -74.149336, 40.5769512 ], [ -74.1490019, 40.5766727 ], [ -74.1487058, 40.5764189 ], [ -74.1484242, 40.5761637 ], [ -74.1481299, 40.5758611 ], [ -74.1479578, 40.5756912 ], [ -74.1477879, 40.575511 ], [ -74.1475768, 40.5752796 ], [ -74.1474165, 40.5751008 ], [ -74.147354800000016, 40.5751174 ], [ -74.1454579, 40.5754433 ], [ -74.1453651, 40.5756563 ], [ -74.1453371, 40.5757204 ], [ -74.1450252, 40.5761528 ], [ -74.1451004, 40.5768673 ], [ -74.1449481, 40.5768841 ], [ -74.1449209, 40.5768583 ], [ -74.1447042, 40.5769941 ], [ -74.144972600000017, 40.5772113 ], [ -74.1450916, 40.577185 ], [ -74.145080300000018, 40.5775751 ], [ -74.1449737, 40.5777176 ], [ -74.1439602, 40.5781835 ], [ -74.143711, 40.5782431 ], [ -74.1434789, 40.578238 ], [ -74.1432765, 40.5782134 ], [ -74.1431624, 40.5781925 ], [ -74.14301, 40.5781457 ], [ -74.1428031, 40.578133 ], [ -74.1426274, 40.578193 ], [ -74.1424799, 40.5782705 ], [ -74.1416137, 40.5784039 ], [ -74.1396833, 40.5785698 ], [ -74.1395301, 40.5786143 ], [ -74.1394242, 40.5786897 ], [ -74.1393605, 40.5787831 ], [ -74.1392563, 40.5788867 ], [ -74.1391087, 40.578999 ], [ -74.1389071, 40.5791215 ], [ -74.1383438, 40.5793395 ], [ -74.1376952, 40.579603 ], [ -74.1376871, 40.5796652 ], [ -74.1377872, 40.5797761 ], [ -74.1378584, 40.5797892 ], [ -74.138466, 40.5795912 ], [ -74.1388161, 40.579605 ], [ -74.1392092, 40.5795788 ], [ -74.1393537, 40.5797062 ], [ -74.1394812, 40.5799516 ], [ -74.1397106, 40.5800398 ], [ -74.1400142, 40.5799944 ], [ -74.1410256, 40.5797171 ], [ -74.1412497, 40.5797452 ], [ -74.1437413, 40.5792309 ], [ -74.1451026, 40.5791962 ], [ -74.1463542, 40.5789929 ], [ -74.1470372, 40.5784943 ], [ -74.1480105, 40.5780708 ], [ -74.1483756, 40.577986 ] ] ] ] } }
]
}
